CCSDS_OMM_VERS = 2.0
CREATION_DATE  = 
ORIGINATOR     = 

OBJECT_NAME    = UNKNOWN
OBJECT_ID      = 
CENTER_NAME    = EARTH
REF_FRAME      = TEME
TIME_SYSTEM    = UTC
MEAN_ELEMENT_THEORY = SGP/SGP4

EPOCH          = 2025-10-29T12:43:26.413248
MEAN_MOTION    = 13.18059351
ECCENTRICITY   = .0258596
INCLINATION    = 99.0636
RA_OF_ASC_NODE = 235.2803
ARG_OF_PERICENTER = 123.6505
MEAN_ANOMALY   = 238.9570

EPHEMERIS_TYPE = 0
CLASSIFICATION_TYPE = U
NORAD_CAT_ID   = 81552
ELEMENT_SET_NO = 999
REV_AT_EPOCH   = 57342
BSTAR          = .30528E-2
MEAN_MOTION_DOT = .1384E-4
MEAN_MOTION_DDOT = 0

CCSDS_OMM_VERS = 2.0
CREATION_DATE  = 
ORIGINATOR     = 

OBJECT_NAME    = UNKNOWN
OBJECT_ID      = 
CENTER_NAME    = EARTH
REF_FRAME      = TEME
TIME_SYSTEM    = UTC
MEAN_ELEMENT_THEORY = SGP/SGP4

EPOCH          = 2025-11-01T22:25:18.063840
MEAN_MOTION    = 13.31393644
ECCENTRICITY   = .0246684
INCLINATION    = 67.2975
RA_OF_ASC_NODE = 9.2291
ARG_OF_PERICENTER = 114.6935
MEAN_ANOMALY   = 64.3532

EPHEMERIS_TYPE = 0
CLASSIFICATION_TYPE = U
NORAD_CAT_ID   = 81599
ELEMENT_SET_NO = 999
REV_AT_EPOCH   = 57964
BSTAR          = .11969E-2
MEAN_MOTION_DOT = .615E-5
MEAN_MOTION_DDOT = 0

CCSDS_OMM_VERS = 2.0
CREATION_DATE  = 
ORIGINATOR     = 

OBJECT_NAME    = UNKNOWN
OBJECT_ID      = 
CENTER_NAME    = EARTH
REF_FRAME      = TEME
TIME_SYSTEM    = UTC
MEAN_ELEMENT_THEORY = SGP/SGP4

EPOCH          = 2025-11-03T10:07:26.065344
MEAN_MOTION    = 12.81211771
ECCENTRICITY   = .0166146
INCLINATION    = 56.4343
RA_OF_ASC_NODE = 324.9501
ARG_OF_PERICENTER = 81.7227
MEAN_ANOMALY   = 280.2501

EPHEMERIS_TYPE = 0
CLASSIFICATION_TYPE = U
NORAD_CAT_ID   = 81605
ELEMENT_SET_NO = 999
REV_AT_EPOCH   = 18116
BSTAR          = .78716E-2
MEAN_MOTION_DOT = .1829E-4
MEAN_MOTION_DDOT = 0

CCSDS_OMM_VERS = 2.0
CREATION_DATE  = 
ORIGINATOR     = 

OBJECT_NAME    = UNKNOWN
OBJECT_ID      = 
CENTER_NAME    = EARTH
REF_FRAME      = TEME
TIME_SYSTEM    = UTC
MEAN_ELEMENT_THEORY = SGP/SGP4

EPOCH          = 2025-10-11T11:25:02.279712
MEAN_MOTION    = 12.36334749
ECCENTRICITY   = .0362952
INCLINATION    = 101.8589
RA_OF_ASC_NODE = 282.2785
ARG_OF_PERICENTER = 268.6990
MEAN_ANOMALY   = 87.2477

EPHEMERIS_TYPE = 0
CLASSIFICATION_TYPE = U
NORAD_CAT_ID   = 81614
ELEMENT_SET_NO = 999
REV_AT_EPOCH   = 53028
BSTAR          = .31878E-1
MEAN_MOTION_DOT = .5042E-4
MEAN_MOTION_DDOT = 0

CCSDS_OMM_VERS = 2.0
CREATION_DATE  = 
ORIGINATOR     = 

OBJECT_NAME    = UNKNOWN
OBJECT_ID      = 
CENTER_NAME    = EARTH
REF_FRAME      = TEME
TIME_SYSTEM    = UTC
MEAN_ELEMENT_THEORY = SGP/SGP4

EPOCH          = 2025-11-03T07:08:05.382528
MEAN_MOTION    = 13.33680188
ECCENTRICITY   = .0776727
INCLINATION    = 65.8248
RA_OF_ASC_NODE = 154.0266
ARG_OF_PERICENTER = 155.0360
MEAN_ANOMALY   = 209.0451

EPHEMERIS_TYPE = 0
CLASSIFICATION_TYPE = U
NORAD_CAT_ID   = 81615
ELEMENT_SET_NO = 999
REV_AT_EPOCH   = 57760
BSTAR          = .87307E-3
MEAN_MOTION_DOT = .2447E-4
MEAN_MOTION_DDOT = 0

CCSDS_OMM_VERS = 2.0
CREATION_DATE  = 
ORIGINATOR     = 

OBJECT_NAME    = UNKNOWN
OBJECT_ID      = 
CENTER_NAME    = EARTH
REF_FRAME      = TEME
TIME_SYSTEM    = UTC
MEAN_ELEMENT_THEORY = SGP/SGP4

EPOCH          = 2025-11-03T17:26:03.802560
MEAN_MOTION    = 12.57493250
ECCENTRICITY   = .00391
INCLINATION    = 101.2599
RA_OF_ASC_NODE = 123.8780
ARG_OF_PERICENTER = 312.2007
MEAN_ANOMALY   = 47.5753

EPHEMERIS_TYPE = 0
CLASSIFICATION_TYPE = U
NORAD_CAT_ID   = 81617
ELEMENT_SET_NO = 999
REV_AT_EPOCH   = 54820
BSTAR          = .28368E-2
MEAN_MOTION_DOT = .435E-5
MEAN_MOTION_DDOT = 0

CCSDS_OMM_VERS = 2.0
CREATION_DATE  = 
ORIGINATOR     = 

OBJECT_NAME    = UNKNOWN
OBJECT_ID      = 
CENTER_NAME    = EARTH
REF_FRAME      = TEME
TIME_SYSTEM    = UTC
MEAN_ELEMENT_THEORY = SGP/SGP4

EPOCH          = 2025-10-21T08:02:53.658528
MEAN_MOTION    = 14.69960147
ECCENTRICITY   = .0075563
INCLINATION    = 66.9769
RA_OF_ASC_NODE = 311.5994
ARG_OF_PERICENTER = 276.8564
MEAN_ANOMALY   = 82.3964

EPHEMERIS_TYPE = 0
CLASSIFICATION_TYPE = U
NORAD_CAT_ID   = 81624
ELEMENT_SET_NO = 999
REV_AT_EPOCH   = 63200
BSTAR          = .14128E-2
MEAN_MOTION_DOT = .8764E-4
MEAN_MOTION_DDOT = 0

CCSDS_OMM_VERS = 2.0
CREATION_DATE  = 
ORIGINATOR     = 

OBJECT_NAME    = UNKNOWN
OBJECT_ID      = 
CENTER_NAME    = EARTH
REF_FRAME      = TEME
TIME_SYSTEM    = UTC
MEAN_ELEMENT_THEORY = SGP/SGP4

EPOCH          = 2025-11-02T05:01:02.442720
MEAN_MOTION    = 12.57170332
ECCENTRICITY   = .0975612
INCLINATION    = 65.8265
RA_OF_ASC_NODE = 214.7395
ARG_OF_PERICENTER = 94.3526
MEAN_ANOMALY   = 276.9411

EPHEMERIS_TYPE = 0
CLASSIFICATION_TYPE = U
NORAD_CAT_ID   = 81640
ELEMENT_SET_NO = 999
REV_AT_EPOCH   = 50498
BSTAR          = .52607E-3
MEAN_MOTION_DOT = .508E-5
MEAN_MOTION_DDOT = 0

CCSDS_OMM_VERS = 2.0
CREATION_DATE  = 
ORIGINATOR     = 

OBJECT_NAME    = UNKNOWN
OBJECT_ID      = 
CENTER_NAME    = EARTH
REF_FRAME      = TEME
TIME_SYSTEM    = UTC
MEAN_ELEMENT_THEORY = SGP/SGP4

EPOCH          = 2025-11-03T04:14:57.794784
MEAN_MOTION    = 13.44278970
ECCENTRICITY   = .0366029
INCLINATION    = 102.1481
RA_OF_ASC_NODE = 187.4586
ARG_OF_PERICENTER = 87.9394
MEAN_ANOMALY   = 59.5576

EPHEMERIS_TYPE = 0
CLASSIFICATION_TYPE = U
NORAD_CAT_ID   = 81652
ELEMENT_SET_NO = 999
REV_AT_EPOCH   = 57333
BSTAR          = .93598E-3
MEAN_MOTION_DOT = .755E-5
MEAN_MOTION_DDOT = 0

CCSDS_OMM_VERS = 2.0
CREATION_DATE  = 
ORIGINATOR     = 

OBJECT_NAME    = UNKNOWN
OBJECT_ID      = 
CENTER_NAME    = EARTH
REF_FRAME      = TEME
TIME_SYSTEM    = UTC
MEAN_ELEMENT_THEORY = SGP/SGP4

EPOCH          = 2025-11-01T19:43:22.355328
MEAN_MOTION    = 14.47600082
ECCENTRICITY   = .0014885
INCLINATION    = 74.0380
RA_OF_ASC_NODE = 113.1074
ARG_OF_PERICENTER = 56.7952
MEAN_ANOMALY   = 303.4632

EPHEMERIS_TYPE = 0
CLASSIFICATION_TYPE = U
NORAD_CAT_ID   = 81667
ELEMENT_SET_NO = 999
REV_AT_EPOCH   = 45072
BSTAR          = .945E-3
MEAN_MOTION_DOT = .346E-4
MEAN_MOTION_DDOT = 0

CCSDS_OMM_VERS = 2.0
CREATION_DATE  = 
ORIGINATOR     = 

OBJECT_NAME    = UNKNOWN
OBJECT_ID      = 
CENTER_NAME    = EARTH
REF_FRAME      = TEME
TIME_SYSTEM    = UTC
MEAN_ELEMENT_THEORY = SGP/SGP4

EPOCH          = 2025-11-03T05:09:07.496640
MEAN_MOTION    = 14.09758872
ECCENTRICITY   = .0032819
INCLINATION    = 66.8201
RA_OF_ASC_NODE = 103.7849
ARG_OF_PERICENTER = 251.8433
MEAN_ANOMALY   = 287.2972

EPHEMERIS_TYPE = 0
CLASSIFICATION_TYPE = U
NORAD_CAT_ID   = 81674
ELEMENT_SET_NO = 999
REV_AT_EPOCH   = 60814
BSTAR          = .91063E-3
MEAN_MOTION_DOT = .1529E-4
MEAN_MOTION_DDOT = 0

CCSDS_OMM_VERS = 2.0
CREATION_DATE  = 
ORIGINATOR     = 

OBJECT_NAME    = UNKNOWN
OBJECT_ID      = 
CENTER_NAME    = EARTH
REF_FRAME      = TEME
TIME_SYSTEM    = UTC
MEAN_ELEMENT_THEORY = SGP/SGP4

EPOCH          = 2025-11-03T01:23:09.990528
MEAN_MOTION    = 14.56926952
ECCENTRICITY   = .0025265
INCLINATION    = 81.2172
RA_OF_ASC_NODE = 337.2140
ARG_OF_PERICENTER = 61.4424
MEAN_ANOMALY   = 298.9311

EPHEMERIS_TYPE = 0
CLASSIFICATION_TYPE = U
NORAD_CAT_ID   = 81683
ELEMENT_SET_NO = 999
REV_AT_EPOCH   = 63008
BSTAR          = .73575E-3
MEAN_MOTION_DOT = .333E-4
MEAN_MOTION_DDOT = 0

