UNKNOWN                 
1 81552U          25302.53016682  .00001384  00000+0  30528-2 0  9999
2 81552  99.0636 235.2803 0258596 123.6505 238.9570 13.18059351573427
UNKNOWN                 
1 81599U          25305.93423685  .00000615  00000+0  11969-2 0  9996
2 81599  67.2975   9.2291 0246684 114.6935  64.3532 13.31393644579643
UNKNOWN                 
1 81605U          25307.42182946  .00001829  00000+0  78716-2 0  9993
2 81605  56.4343 324.9501 0166146  81.7227 280.2501 12.81211771181168
UNKNOWN                 
1 81614U          25284.47572083  .00005042  00000+0  31878-1 0  9995
2 81614 101.8589 282.2785 0362952 268.6990  87.2477 12.36334749530280
UNKNOWN                 
1 81615U          25307.29728452  .00002447  00000+0  87307-3 0  9991
2 81615  65.8248 154.0266 0776727 155.0360 209.0451 13.33680188577603
UNKNOWN                 
1 81617U          25307.72643290  .00000435  00000+0  28368-2 0  9993
2 81617 101.2599 123.8780 0039100 312.2007  47.5753 12.57493250548207
UNKNOWN                 
1 81624U          25294.33534327  .00008764  00000+0  14128-2 0  9995
2 81624  66.9769 311.5994 0075563 276.8564  82.3964 14.69960147632002
UNKNOWN                 
1 81640U          25306.20905605  .00000508  00000+0  52607-3 0  9997
2 81640  65.8265 214.7395 0975612  94.3526 276.9411 12.57170332504980
UNKNOWN                 
1 81652U          25307.17705781  .00000755  00000+0  93598-3 0  9998
2 81652 102.1481 187.4586 0366029  87.9394  59.5576 13.44278970573339
UNKNOWN                 
1 81667U          25305.82178652  .00003460  00000+0  94500-3 0  9995
2 81667  74.0380 113.1074 0014885  56.7952 303.4632 14.47600082450720
UNKNOWN                 
1 81674U          25307.21467010  .00001529  00000+0  91063-3 0  9992
2 81674  66.8201 103.7849 0032819 251.8433 287.2972 14.09758872608149
UNKNOWN                 
1 81683U          25307.05775452  .00003330  00000+0  73575-3 0  9996
2 81683  81.2172 337.2140 0025265  61.4424 298.9311 14.56926952630089
